name,alias,addr,lat,lon,tel,link,menu,flag,media
(휴업)키친아만티,아만티호텔 서울,서울시 마포구 서교동 447-1 (1층),37.5571963,126.9185987,02-325-7733,재오픈예정,"(평일점심) 24,200원|2022.5",,xybqfLRWs8M
JINS미트&샐러드바,,서울시 강북구 미아동 49-160번지,37.61242021,127.0348704,02-985-1888,[월휴무] 12여가지 맛있는고기 + 샐러드바,"13,900원|2023.10",,ldn2NbBo49w
가연 마라탕. 양꼬치,,서울시 강북구 수유동 189-6 (1층),37.6415907,127.0243574,02-999-1566,"(화요일 휴무) 샤브샤브, 마라탕","20,900원|2023.09",,sPBEHno1WII
가오곱창,홍대점,서울시 마포구 양화로16길 30-5,37.552738,126.9212268,02-336-9969,"(2만원대) 소 (곱창,대창,막창,염통), 생방송투데이 (2019.04.17) 방영",,,XsijvoJEDZ4
가인채,강동점,서울시 강동구 양재대로 1571 (홈플러스 3층),37.5456952,127.142258,02-474-6602,"샤브샤브 오감만족, 아름다운 사람 그리고 채소","[평일] 20,800 [주말] 23,800원|2024.04",,15C5E_hxM_0
감격시대,,서울시 서초구 서초동 1579-4,37.4885678,127.0137181,02-521-3392,"등심, 부채살, 토시살, 갈비살, 우삼겹, 차돌박이, LA갈비, 치맛살, 제주오겹, 육회","26,000~33,000원|2023.8",,bF8DcmJsaXA
갓파스시,분당미금역점,경기도 성남시 분당구 금곡동 157,37.3503391,127.1097065,031-716-4377,회전초밥,"[평점] 20,800~22,800 [저녁&주말] 26,200~27,900원|2022.7",,tBD1H_m8Dio
강남 돼지상회,명동직영점,서울시 중구 을지로2가 199-40 (2층),37.5646507,126.983717,02-318-2990,"삼겹살, 간장치킨, 목살, 우삼겹, 대패삼겹, 공기밥, 음료수, 함흥냉면","16,900~22,900원|2023.8",,wDuq7E6us8M
강남 돼지상회,홍대점,서울시 마포구 서교동 355-28,37.5536802,126.9212237,02-322-8891,"삼겹살,간장순살치킨,목살,우삼겹,껍데기,공기밥,음료수,함흥냉면","15,900~21,900원|2024.05",,-NGVOAfTgJY
건대 소몰이,건대점,서울시 광진구 화양동 44-61,37.5424931,127.0653658,02-467-3339,(오후2시부터) 미국산 프리미엄급 냉장숙성 소고기,"24,900원|2022.11",,iGIZi181Qps
경주뷔페식당,,경상북도 경주시 성동동 51-1 (성동시장 불국사한식뷔페),35.8453558,129.2163456,010-5170-8879,가정 한정식,"8,000원|2023.8",,7k4dbbEUPXY
고기굽는사람들,남현점,서울시 관악구 남현동 1061-15,37.4748604,126.9811736,02-6404-8120,"[2인 이상] 냉동삼겹살, 냉동항정살, 우삼겹, 음료수","16,500원|2024.07",,_syr8ZfcYrA
고기대통령,본점,서울시 광진구 능동로 91 (2층),37.539302,127.0700518,02-462-9080,"소고기, 돼지고기, 생생정보 (2019.06.14) 방영","[평일점심] 20,900 [저녁및주말] 23,900원|2022.12",,ZaaUGzzf8jQ
고기싸롱,강남역점,서울시 강남구 역삼동 817-3 (1층),37.5004283,127.0277879,02-554-8897,"삼겹살, 돼지양념구이, 돼지껍데기, 매콤갈매기, 닭갈비, 주먹고기","17,500원|2022.10",,PoyAPBTL_EQ
고기싸롱,독산점,서울시 금천구 독산동 378-436 (1층),37.4629467,126.9041512,02-807-8890,"수제돼지양념구이, 숙성삼겹살, 주먹고기, 매콤숯불닭갈비, 껍데기, 특선메뉴, 공기밥","[평일점심] 17,500 [저녁및주말] 18,500원|2024.8",,K6DCQWYzQDk
고기싸롱,수유점,서울시 강북구 수유동 182-42,37.6424083,127.0237542,02-998-9277,"수제양념구이, 숙성삼겹살, 주먹고기, 매콤숯불닭갈비, 껍데기, 치킨, 특선메뉴, 볶음밥","[평일점심] 17,500 [저녁및주말] 18,500원|2023.10",,HTOxvKv667M
고기싸롱,일산화정역점,경기도 고양시 덕양구 화정동 978-2 (2층),37.6326666,126.8326717,031-974-3392,"수제돼지양념구이, 숙성삼겹살, 주먹고기, 매콤숯불닭갈비, 껍데기, 특선메뉴, 공기밥","[평일점심] 17,500 [저녁및주말] 18,500원|2024.08",,0WmxDTxNgaU
고기싸롱,철산점,경기도 광명시 철산동 421,37.4747483,126.8686359,02-2625-2520,"양념구이, 숙성삼겹살, 매콤닭갈비, 주먹고기, 껍데기, 특선메뉴, 공기밥","[주중점심] 16,500 [저녁및주말] 17,500원|2023.2",,X9oh_lu0co4
고기싸롱 ,산본역점,경기도 군포시 산본동 1136 (한솔프라자 2층),37.3601039,126.9310241,031-392-9279,"수제양념구이, 숙성삼겹살, 주먹고기, 매콤숯불닭갈비, 껍데기, 치킨, 특선메뉴, 볶음밥","[평일점심] 16,500 [저녁및주말] 17,500원|2023.4",,76QZAq47xB0
고메스퀘어,미사점,경기도 하남시 망월동 1100 (지하 1층),37.5641712,127.1920851,031-793-1350,프리미엄 뷔페,"[평점] 25,900 [평저] 29,900 [주말] 32,900원|2024.03",,SZ0vlDULtmw
고메스퀘어,배곧직영점,경기도 시흥시 배곧동 230 (3층),37.366607,126.7277422,0507-1478-1361,프리미엄 뷔페,"[평점] 24,900 [평저] 29,900 [주말] 31,900원|2023.11",,fOL5cLW03PE
고토히라우동,,서울시 마포구 서교동 327-20,37.5550906,126.9291806,02-333-4885,"관동식의 육수와 관서식의 육수를 사용해 만든 생면우동, 생방송투데이 (2018.11.22) 방영","9,000~11,000원|2024.01",,bAk90hGZRTs
고향정한식뷔페,,경상북도 포항시 남구 대잠동 463-13,36.0244954,129.3392008,054-277-6117,가정 한정식,"9,000원|2023.8",,A750PxOPVRk
곱끌림,노원점,"서울시 노원구 상계동 595 (1층, 곱,끌림)",37.6566633,127.0629476,0507-1455-9286,"(2&4주 화요일 휴무, 오후 4시부터)곱창, 대창, 특양, 염통 모듬세트","28,400원|2023.10",,TpSm-ZlLhXE
곱끌림,미아점,"서울시 강북구 미아동 54-255 (1층, 곱,끌림)",37.6129553,127.0318795,010-9115-5967,"[5시부터] 모듬 (곱창, 대창, 특양, 염통)","28,400원|2023.11",,lcgxmvc27uU
곱창폭식,성남점,경기도 성남시 중원구 금광동 4,37.4447096,127.1576323,031-747-0092,"곱창, 막창, 대창, 염통, 우삼겹, 라면","27,500원|2022.5",,OgsoPZ1S2tM
곱창폭식,안양점,경기도 안양시 만안구 안양동 674-160 (2층),37.3988325,126.9238124,031-360-7492,"(평일 4시, 주말 2시부터) 곱창, 대창, 막창, 염통, 우삼겹, 주먹밥","26,900원|2023.7",,ShypHRYcYig
공룡고기N,시흥대야점,경기도 시흥시 대야동 534-3 (2층),37.4432981,126.7913815,031-315-1907,"소고기, 돼지고기, 육회, 샐러드바","28,900원|2023.4",,v_cZ7lckrd8
구구향훠궈,사당역점,서울시 관악구 남현동 1061-17 (2층),37.4746814,126.9814233,010-8873-2131,(1~2만원대) 훠궈,,,RJe9YS7ALeY
구구향훠궈,이수점,서울시 동작구 동작대로27다길 26,37.486358,126.9802711,02-535-7866,(1~2만원대) 훠궈,,,pleKXuo4NoY
구이마을,2호점,서울시 서대문구 창천동 33-25,37.5581585,126.9364093,02-334-4252,"삼겹살, 목살","15,900원|2024.02",,OpTYNvP2MK0
국가대표고기집,수진점,경기도 성남시 수정구 수진동 75,37.4402978,127.1323257,031-723-9229,"돼지고기(삼겹살,목살,항정살,갈매기살 등)","14,900원|2022.5",,j-E2JwWGzd8
김덕후의곱창조,건대점,서울시 광진구 아차산로33길 21-4,37.5413676,127.0700594,02-499-1540,(오후 3시부터) 소 내장구이 신문화 창조 (곱창 막창 대창 염통),"24,900원|2022.7",,tyof1myvBCM
김덕후의곱창조,홍대본점,서울시 마포구 와우산로 51-9,37.5492213,126.9225166,070-7592-0590,"한우 내장구이 신문화 창조 (곱창 막창 대창 염통), 생생정보 (2014.10.13) 방영","26,800원|2024.06",,TKBz8ZEWwHY
김덕후의곱창조,홍대클럽점,서울시 마포구 서교동 407-26,37.5505848,126.9221452,02-337-0792,소 내장구이 신문화 창조 (곱창 막창 대창 염통),"22,900원|2021.5",,bxy2y19pi4Q
김사부 샤브샤브,,서울시 금천구 가산로 132,37.477266,126.8920458,010-5811-0412,"(화요일 오전휴무, 혼밥 5,000+) 훠궈 (양고기, 소고기, 해산물, 야채)","20,000원|2023.2",,LxsMOxpeM4k
김천재의육회반한연어,마곡점,서울시 강서구 마곡동 796-7 2층,37.5603376,126.835089,02-3663-5666,"육회, 연어, 참치","19,900~29,900원|2022.9",,fQglrStgXlQ
김천재의육회반한연어,분당서현점,경기도 성남시 분당구 서현동 245-4 (엘지분당에크 2층),37.3870906,127.125205,031-7059-3333,"(2인 이상) 육회, 연어, 참치","19,900~34,900원|2022.6",,zIzrL8LK-VQ
김천재의육회반한연어,신논현본점,서울시 강남구 논현동 181-8,37.5074793,127.0268319,02-516-1123,"(2인 이상) 육회, 연어, 참치","19,900~34,900원|2022.9",,EwyMwDs1Nuw
김판서갈비전문점,,경기도 성남시 수정구 수진동 1287,37.4388928,127.1329498,031-756-0081,"수제돼지갈비, 등심, 갈비살, 장어","15,800~29,800원|2022.6",,ynAm2ONxjIg
김프로부대찌개 ,은행점,경기도 시흥시 은행로155번길 6 (2층),37.4447944,126.7987576,031-507-4007,부대찌개,"11,900원|2023.3",,'1QMWwrh6B3
꽃마름,울산삼산점,울산시 남구 달동 1256-4 (울산시티호텔 2층),35.5383411,129.3341143,052-266-4977,메인메뉴 주문시 씨푸드 샐러드바 또는 뷔페 무제한 사용가능,"[평일점심] 18,900 [저녁및주말] 24,900원|2023.7",,HP3-65aMNTY
냄비9단,,경기도 성남시 분당구 금곡동 166 (이코노샤르망 2층),37.350385,127.1073766,031-712-1533,"국내산 숯불닭갈비, 생생정보 (2018.02.28) 방영","19,900원|2022.7",,SIXRekvNEmM
놀부부대찌개,신촌점,서울시 서대문구 창천동 33-43,37.557765,126.936763,02-325-8492,"부대찌게, 찜닭","부대찌개 10,900원; 찜닭 11,900원|2021.5",,SA7oCIRNUuU
놀부항아리갈비,명일점,서울시 강동구 명일동 335-1 (2층),37.5484967,127.1438627,0507-1468-1085,"숙성 숯불돼지갈비, 등갈비(프렌치렉/돈마호크), 통삼겹, 매콤닭갈비, 마늘 갈매기살, 특선메뉴, 공기밥","[평일점심] 17,500 [저녁및주말] 18,500원|2024.03",,NrE_f07apPg
다담샤브샤브&월남쌈,위례점,경기도 성남시 수정구 창곡동 546 (3층 305호),37.4683593,127.1401881,0507-1397-6133,"소고기 샤브샤브, 월남쌈, 공기밥, 아메리카노, 아이스크림","[평일점심] 17,900 [저녁및주말] 21,900원|2024.06",,mcmYi3q5pbY
다이닝원,발산점,서울시 강서구 마곡동 795-7 (열린프라자 9층),37.5601192,126.837719,02-3661-1357,스시 롤 샐러드 뷔페,"[평점] 22,900 [평저] 27,900 [주말] 29,900원|2022.12",,qwxFkDhjyek
다이닝원,분당점,경기도 성남시 분당구 성남대로 912 (분당BYC빌딩 2층),37.41097,127.1292547,031-702-6274,"모두를 위한 식사, 프리미엄 뷔페 레스토랑","[평점] 22,900 [평저] 27,900 [주말] 29,900원|2024.2",,osQvHRdn9M4
닭갈비제작소,구리돌다리점,경기도 구리시 수택동 405-23 (1층),37.5997503,127.1418579,031-569-3737,"매일 공급되는 100% 국내산 닭고기로 만든 닭갈비, 음료수","13,900원|2022.8",,DbM5CPs863Y
닭갈비제작소,노원점,서울시 노원구 상계동 358-9 (2층),37.6575622,127.0623629,02-932-0223,매일 공급되는 100% 국내산 닭고기로 만든 닭갈비,"12,900원|2023.10",,yc7zHJkZ85s
닭갈비제작소,화정점,경기도 고양시 덕양구 화정동 975-1 (삼진빌딩 2층),37.6334588,126.8333827,031-971-0223,"철판 닭갈비, 닭갈비 구이, 공기밥, 음료수","13,900~14,900원|2024.08",,AJ-d47J8E80
대가참치,,서울시 동대문구 천호대로85길 11,37.562642,127.0661158,02-2242-4944,참치,"39,000~150,000원|2022.8",,xAnrptMZX7A
대반전,성남점,경기도 성남시 중원구 성남동 3163,37.4337073,127.1328433,031-758-2778,"(4인 가격, 1인 증가시 9천원+) 모듬전","45,000~58,000원|2022.5",,_R3T0IFRxL8
대진도원참치,강남역점,서울시 강남구 역삼동 822-7 (목화밀라트 지하1층),37.4989854,127.0295436,02-556-4588,참치,"45,000~100,000원|2022.10",,jPpVi3QX2co
더고기,서울대본점,서울시 관악구 봉천동 854-1,37.4801746,126.9536236,02-3285-3392,"돼지갈비, 삼겹살, 목살","12,000~15,000원|2021.8",,NZYtwBBkg34
더메이드뷔페,,서울시 강서구 마곡동 771-4 (이너매스 4층),37.5608356,126.8296186,02-3663-7090,"도심 속의 자연, 프리미엄 뷔페","[평점] 19,900 [평저] 25,900 [주말] 26,900원|2022.9",,Wo73IFJ8Ppg
더스시,의정부점,경기도 의정부시 의정부동 179-10 (2층),37.7399113,127.0491763,0507-1368-7066,"회전 초밥 (스시, 롤, 샐러드, 100% 생연어만 사용)","[평일점심] 22,900 [저녁및주말] 25,900원|2023.11",,GeK0LCrn1gQ
더스시,화정점,경기도 고양시 덕양구 화정동 978 (2층),37.6330288,126.8326757,031-970-7706,"회전 초밥 (스시, 롤, 샐러드, 100% 생연어만 사용)","[평일점심] 24,900 [저녁및주말] 27,900원|2024.08",,s73axdWMnlk
더아리엘,목동점,서울시 양천구 오목로 300 (지하1층),37.52483112,126.8700215,02-2655-0770,"[월,화 휴무] Seafood & Cook","[평일점심] 42,000 [저녁및주말] 65,900원|2024.02",,1thbVB2w_-Q
더차림,강남점,서울시 강남구 논현로167길 9,37.5244562,127.0274713,02-545-5993,(1만원대) 손맛으로 완성되는 수제퓨전 한식 100여가지 메뉴,,,11-FiAlR-fM
독도참치,강북구청점,서울시 강북구 한천로139나길 7,37.6391943,127.0250901,02-999-0802,(일요일 휴무)(오후 2시부터) 참치,"35,000~100,000원|2023.03",,pjodT53v-4g
돈판,,경기도 고양시 일산동구 장항동 734-2,37.6631283,126.7677724,031-916-5171,"삼겹살, 대패삼겹, 오리, 항정, 공기밥, 음료수, 주류","15,000~33,000원|2022.6",,kq2xMJKGUZ8
동래순훠궈,,서울시 강서구 마곡중앙6로 93 (3층),37.5601357,126.8376979,02-3661-5868,"훠궈(양고기, 소고기, 해산물, 야채), 모듬꼬치 (14종, 선택가능)","18,900~23,900원|2022.9",,e0RgcqnlgQw
동우회,화정점,경기도 고양시 덕양구 화정동 979-2 (백양빌딩 2층),37.6321006,126.8324958,0507-1382-0548,"프리미엄 소고기(갈비살, 등심, 부채, 안심, 차돌박이), 떡갈비, 삼겹살, 목살","29,900원|2024.06",,qHE_0B5CJKg
동천훠궈뷔페,,서울시 영등포구 영등포동3가 10-5,37.5168999,126.9074268,02-2677-0853,"훠궈 (양고기, 소고기, 삼겹살, 해산물, 야채)","17,000원|2021.9",,xs5yj72aysQ
돼지먹었소,,서울시 강동구 천호동 453-6 (강동빌딩 2층),37.5385706,127.1280422,070-4193-5040,"소고기 (4종) 또는 돼지고기(8종), 공기밥","17,900~27,900원|2024.05",,v57ToZg7yWM
두끼,NC강남점,서울시 서초구 잠원로 51,37.5092377,127.0074886,02-530-5643,"떡볶이로 한끼! 볶음밥으로 두끼! ""맛있는 떡볶이, 그 이상의 즐거움""","10,900원|2023.8",,EV2qGU0YaCE
두끼,NC광명점,경기도 광명시 하안동 38 (6층),37.4612179,126.8794399,02-3397-2771,"떡볶이로 한끼! 볶음밥으로 두끼! ""맛있는 떡볶이, 그 이상의 즐거움""","9,900원|2023.4",,85pL-51iy-4
두끼,NC야탑점,경기도 성남시 분당구 야탑동 357-1 (NC백화점 본관 7층),37.4107,127.1275,031-780-3608,"떡볶이로 한끼! 볶음밥으로 두끼! ""맛있는 떡볶이, 그 이상의 즐거움""","8,900원|2022.5",,YyG-3lPhSPo
두끼,건대점,서울시 광진구 화양동 6-7번지 (2층),37.540476,127.0702257,02-462-7792,"떡볶이로 한끼! 볶음밥으로 두끼! ""맛있는 떡볶이, 그 이상의 즐거움""","9,900원|2022.10",,t5Gj5oeniR0
두끼,구리돌다리점,경기도 구리시 체육관로 172번길 59 (2층),37.5998673,127.1394913,031-562-2771,"떡볶이로 한끼! 볶음밥으로 두끼! ""맛있는 떡볶이, 그 이상의 즐거움""","9,900원|2022.7",,pnpVj1Dw4hw
두끼,대전둔산점,대전시 서구 둔산동 1072 대일빌딩 (2층),36.3518705,127.3762137,042-487-2771,"두끼 체인지업, 마라드림","10,900원|2023.6",,iwqQ8mHS2xo
두끼,롯데마트 금천점,서울시 금천구 독산동 441-6 (롯데마트 지하1층),37.4611279,126.8971971,02-804-2771,"즉석 떡볶이, 좋은 사람들과 함께하는 가치","10,900원|2024.8",,XkDpoBiMu-o
두끼,롯데마트 울산점,울산시 달동 833-1  (롯데마트 1층),35.5339498,129.3157036,052-269-2422,"떡볶이로 한끼! 볶음밥으로 두끼! ""맛있는 떡볶이, 그 이상의 즐거움""","10,900원|2023.8",,FGUjZCTIaTc
두끼,명동역점,서울시 중구 충무로2가 3-35,37.5622956,126.9858506,02-318-1333,"떡볶이로 한끼! 볶음밥으로 두끼! ""맛있는 떡볶이, 그 이상의 즐거움""","8,900원|2021.6",,crpZsvn0w7w
두끼,신림역점,서울시 관악구 신림동 1641-23 (2층),37.4819012,126.9301992,02-877-2771,"떡볶이로 한끼! 볶음밥으로 두끼! ""맛있는 떡볶이, 그 이상의 즐거움""","9,900원|2022.12",,wGgMogAStVE
두끼,안양1번가점,경기도 안양시 만안구 안양로304번길 28 (2층),37.399904,126.9224889,031-444-2771,"떡볶이로 한끼! 볶음밥으로 두끼! ""맛있는 떡볶이, 그 이상의 즐거움""","9,900원|2023.5",,Us5vPQ1wcrU
두끼,일산웨스턴돔점,경기도 고양시 일산동구 정발산로 39 (2층),37.6573519,126.7730971,031-907-2771,"떡볶이로 한끼! 볶음밥으로 두끼! ""맛있는 떡볶이, 그 이상의 즐거움""","9,900원|2022.7",,ywuxic00hgI
두끼,천호로데오점,서울시 강동구 올림픽로 70길 50,37.539128,127.1263782,02-474-2771,"두끼 체인지업, 마라드림","10,900원|2023.8",,sdzryjhyTHY
두끼,한양대점,서울시 성동구 마조로 30 (3층),37.5602929,127.0414858,02-2291-2771,"(만원이하) 떡볶이로 한끼! 볶음밥으로 두끼! ""맛있는 떡볶이, 그 이상의 즐거움""",,,FqLcj3W24XE
두끼,홍대점,서울시 마포구 홍익로6길 8 (2층),37.5548944,126.9225298,02-325-0737,"떡볶이로 한끼! 볶음밥으로 두끼! ""맛있는 떡볶이, 그 이상의 즐거움""","10,900원|2024.01",,lesi2GTfbBI
따봉브라질,,서울 용산구 이태원동 168-12 (2F),37.5345281,126.9918238,02-797-3363,"브라질 가정식, 스테이크 '슈하스코 Churrasco', 생생정보 (2014.12.18) 방영","15,000~53,000원|2023.2",,WeY1zEIm97w
뜻밖에양꼬치,,서울시 마포구 동교동 163-3,37.5551155,126.9230289,010-5505-8411,양어깨살스테이크 + 셀프주먹밥,"31,800원|2024.06",,Zw-Bwi41EFU
라스카그릴(Lasca Grill),동탄점,경기도 화성시 오산동 967-62 (3층),37.2043764,127.0983152,031-377-2592,"[월요일 휴무, 평일 4:30, 주말 12시부터] 슈하스코 (브라질식 스테이크)","[평일] 40,000~50,000 [주말] 40,000원|2024.09",,kwyEy3K9VvM
"라장양갈비,양꼬치 무한리필",강남점,서울특별시 강남구 역삼동 619-30 (지상3층),37.500863,127.0277196,0507-1345-6758,"양꼬치, 식사류 (+가격에 따라 양걀비, 요리 1인분씩 추가)","23,900~27,900원|2024.12",,uO8jsZYIkTI
란꾸이팡,서초점,서울시 서초구 서초대로75길 45 (2층),37.5014898,127.0245179,02-599-2168,"(2~3만원대) 모듬꼬치(양꼬치,양삼겹,소갈비,돈삽겹,새우,막창,어묵)",,,-AGt3Q4lze4
램프리,하남점,경기도 하남시 망월동 1079-2 (3층),37.5664362,127.1897332,031-792-6602,"양꼬치,삼겹살,소꼬치,닭꼬치,소시지","21,800원|2024.01",,em_WTLWaRIY
램프리 무한리필,2호점,경기도 하남시 망월동 1111 (2층),37.5614202,127.1918768,031-792-1922,(2인 이상) 모듬꼬치,"21,800원|2023.2",,Gcv_rl095Nc
레이크사이드,힐튼 경주,경상북도 경주시 신평동 370 (1층),35.839995,129.2856989,054-740-1777,"[주말/ 공휴일 5,000원 추가] 다양한 세계 각국의 요리와 신선한 스시& 즉석요리","[점심] 55,000 [저녁] 70,000원|2023.7",,U9ZlvIgvE7U
마뇨떡볶이,신림점,서울시 관악구 신림동 1638-1 (2층),37.4822482,126.9289366,02-873-6262,"(2인이상) 30가지 토핑 즉석떡볶이,돈까스,탕수류,튀김,음료","8,900원|2023.1",,-ifBTJf_vNQ
마뇨떡볶이,위례점,경기도 성남시 수정구 창곡동 513-6 (이너매스 위례 2층 205호),37.4731133,127.1497392,031-758-6701,"30가지 토핑의 즉석 떡볶이, 돈까스, 음료수","10,900원|2024.05",,Eqswt4DceBo
마벨리에,시흥점,서울시 금천구 시흥동 992-47 (홈플러스 7층),37.4519048,126.9007948,02-807-0700,"(월휴무) 호텔급 인테리어, 품위있는 분위기, 최고의 셰프","[평점] 37,900 [평저] 49,900 [주말]  54,900원|2024.8",,IGrwiBbbPiI
마키노차야 블랙31,잠실 롯데타워점,서울시 송파구 신천동 29 (롯데월드타워 31층),37.5125702,127.1025625,070-5224-0866,바다에서 식탁까지 절대적인 신선함만 담다,"[평일점심] 95,000 [저녁및주말] 125,000원|2023.8",,Qdl379oB_kE
만이갈비,구리수택점,경기도 구리시 수택동 516-28,37.59849,127.1447,031-562-6622,"수제갈비 / 생목살, 삼겹살, 고추장삼겹살, 공기밥","15,000원|2022.7",,A_ZT6caZB18
만족양꼬치,영등포본점,서울시 영등포구 영등포동3가 23-5 (2층),37.5179474,126.9091729,02-2069-1005,모듬꼬치,"15,900원|2021.9",,zdqzLpNV1x0
맛자랑맛집,,서울시 영등포구 영등포동4가 75-3,37.5190245,126.9042809,02-2069-1233,"고기무한리필, 고기와 생선이 있는 한식뷔페","7,000~25,000원|2021.9",,jZOeCaJ8Ajw
먹고보자양꼬치,수진점,경기도 성남시 수정구 수진동 81,37.4406062,127.1332045,031-751-3211,"양꼬치 (양갈비,삼겹살,껍데기,새우,똥집)","14,900원|2022.5",,1yVDq0ychtc
명륜진사갈비,광명하안점,경기도 광명시 하안동 33-6 삼전빌딩 (2층),37.4632277,126.8803079,02-899-6698,"숙성 숯불돼지갈비, 등갈비(프렌치렉/돈마호크), 통삼겹, 숯불닭갈비, 떡볶이, 튀김, 공기밥, 음료","17,900원|2023.3",,GIjowGYXyB8
명륜진사갈비,군포산본점,경기도 군포시 산본동 1123-4,37.3600098,126.9297765,031-391-3694,"숙성 숯불돼지갈비, 등갈비(프렌치렉/돈마호크), 통삼겹, 숯불닭갈비, 떡볶이, 튀김, 공기밥, 음료","17,900원|2023.4",,j7nyr3wQZuQ
명륜진사갈비,미아사거리점,서울시 강북구 미아동 87-54,37.6163762,127.0336615,02-987-9966,"숙성 숯불돼지갈비, 등갈비(프렌치렉/돈마호크), 통삼겹, 목살, 숯불닭갈비, 떡볶이, 튀김, 공기밥, 음료수","18,900원|2023.10",,r5-rIOMOAaI
명륜진사갈비,분당 미금점,경기도 성남시 분당구 금곡동 153 (2층),37.3503982,127.1107975,031-711-7486,"숯불돼지갈비, 공기밥, 음료","16,500원|2022.7",,HJQqLj-UKyw
명륜진사갈비,서울노원점,서울시 노원구 상계로1길 38-11,37.6579785,127.0621185,02-935-0556,"숙성 숯불돼지갈비, 숯불닭갈비, 삼겹살, 공기밥, 음료","17,900원|2023.10",,zYAduOL5L3o
명륜진사갈비,서울명일점,서울시 강동구 명일동 334-10 (1층),37.5492515,127.1438968,02-428-1939,"숙성 숯불돼지갈비, 등갈비(프렌치렉/돈마호크), 통삼겹, 목살, 숯불닭갈비, 떡볶이, 튀김, 공기밥, 음료수","19,900원|2024.04",,wD6QccSEuZE
명륜진사갈비,서울삼전점,서울시 송파구 삼전동 128-1 (1층),37.5057676,127.0963069,02-6412-8292,"숙성 숯불돼지갈비, 등갈비(프렌치렉/돈마호크), 통삼겹, 숯불닭갈비, 떡볶이, 튀김, 공기밥, 음료","18,900원|2023.9",,R2-wTAGPUWg
명륜진사갈비,서울성균관대점,서울시 종로구 명륜3가 53번지,37.5858106,126.9957415,02-747-9279,"숙성 숯불돼지갈비, 공기밥, 음료","14,900원|2021.10",,rH8Xzl-Zbgo
명륜진사갈비,서울신촌점,서울시 서대문구 창천동 2-80,37.5592403,126.9395785,02-313-0522,"숙성 숯불돼지갈비,공기밥,음료","13,500~14,900원|2021.5",,pkaUGXWGerQ
명륜진사갈비,서울합정점,서울시 마포구 합정동 413-25,37.5487543,126.9153806,02-323-6699,"숙성 숯불돼지갈비, 등갈비(돈마호크), 통삼겹, 목살, 숯불닭갈비, 스테이크, 떡볶이, 튀김, 공기밥, 음료수","19,900원|2024.05",,59RQjrY81gY
명륜진사갈비,성남위례점,경기도 성남시 수정구 창곡동 509-2 (2층),37.4722575,127.1426642,031-758-9272,"숙성 숯불돼지갈비, 등갈비(돈마호크), 통삼겹, 목살, 숯불닭갈비, 페퍼스테이크, 떡볶이, 튀김, 공기밥, 음료수","19,900원|2024.05",,dQE7_GeEObY
명륜진사갈비,시흥사거리점,서울시 금천구 시흥동 870-10,37.4575391,126.8999281,02-802-6888,"숙성 숯불돼지갈비, 등갈비(돈마호크), 통삼겹, 목살, 숯불닭갈비, 페퍼스테이크, 떡볶이, 튀김, 공기밥, 음료수, 생맥주","19,900원|2024.8",,XOLOLDarZlQ
명륜진사갈비,영종도운서운남점,인천시 중구 운남동 1602-11 (2층),37.4776792,126.5055185,0507-1405-9919,"숙성 숯불돼지갈비, 등갈비(프렌치렉/돈마호크), 통삼겹, 숯불닭갈비, 떡볶이, 튀김, 공기밥, 음료수","18,900원|2023.9",,GpcZGvlBugE
명륜진사갈비,은계점,경기도 시흥시 은행동 646-1,37.4369143,126.801612,031-311-7661,"숙성 숯불돼지갈비, 등갈비(프렌치렉/돈마호크), 통삼겹, 숯불닭갈비, 떡볶이, 튀김, 공기밥, 음료","18,900원|2023.4",,1uB__YZZKbU
명륜진사갈비,장안점,서울시 동대문구 장안동 141-30,37.5725654,127.066861,02-2212-1204,"숙성 숯불돼지갈비, 공기밥, 음료","16,500원|2022.7",,atHjamQEL6U
명륜진사갈비,제주노형점,제주도 제주시 노형동 1055-1 (2층),33.4886407,126.4759482,064-747-9272,"숙성 숯불돼지갈비, 등갈비(프렌치렉/돈마호크), 통삼겹, 숯불닭갈비, 떡볶이, 튀김, 공기밥, 음료","18,900원|2023.9",,09_P-utbAJQ
명륜진사갈비,종로관철점,서울시 종로구 관철동 12-2,37.5690211,126.9867687,02-734-8560,"숙성 숯불돼지갈비, 공기밥, 음료수","14,900원|2021.7",,S94WcJi8MM4
명륜진사갈비,포항 남부시장점,경상북도 포항시 남구 상도동 634-3 (1층),36.0130078,129.3572169,054-274-7792,"숙성 숯불돼지갈비, 등갈비(프렌치렉/돈마호크), 통삼겹, 숯불닭갈비, 떡볶이, 튀김, 공기밥, 음료","18,900원|2023.7",,JiSSsnkxIEE
명현만간장게장,합정점,서울시 마포구 서교동 490 (메세나폴리스 1층),37.5502164,126.9140521,0507-1302-3837,"[2인 이상] 숫꽃게 간장게장, 양념게장, 떡볶이, 튀김","35,800원|2023.12",,hT3-T6qgFZw
몬스타쉐프의 무한곱창,본점 (1호점),서울시 송파구 방이동 62-12,37.5136545,127.1087953,02-421-4433,"(2~3만원대) 곱창, 대창, 막창, 우삼겹, 주먹밥, 음료수, 소주",,,pZgZ9uuWAco
무리소북촌삼대갈비,평촌점,경기도 안양시 동안구 관양동 1604-4 (2층),37.3938614,126.9632766,031-385-7771,"흑돼지(듀록), 등심, 토시, 부채, 갈비살, LA양념갈비, 공기밥 ","22,800~45,800원|2023.4",,gXWdbLU3VU0
무쏘,서울시 홍대점,서울시 마포구 서교동 363-9,37.550906,126.9220225,02-336-3996,"(2만원대) 소고기, 흑돼지",,,5LVCmb5WTY0
무카타부페&타이마트,,경상북도 포항시 남구 상도동 629-3,36.0121264,129.3558584,054-277-0722,(금요일 휴무) 레누 무카타,"28,000원|2023.7",,MzMo-CVKcW8
무한리필 홍태관,,서울시 송파구 백제고분로7길 16-9,37.5101444,127.0809319,02-422-1939,(1만원대) 훠궈+양꼬치,,,vbmYRpG6C7k
무한삼겹시대,산본점,경기도 군포시 산본동 1129-2 (2층),37.3594994,126.93271,031-396-6092,"삼겹살, 목살, 막창, 소고기(부채, 갈비, 토시), 공기밥, 라면","15,900~18,900원|2023.5",,VtxxnSG9GLo
무한숯불양꼬치,강남본점,서울시 강남구 역삼동 813-16,37.5022447,127.0266082,02-508-6799,"훠궈(양고기, 소고기, 야채), 모듬꼬치","14,000~29,000원|2022.9",,f2Cp4H5dxA8
무한야끼,,서울시 강서구 마곡동 774-9,37.5601077,126.8320824,02-3663-9252,소고기 야키니쿠 다베호다이,"32,000원|2022.8",,WA0W3jH1zc4
무한통삼,한양대점,서울시 성동구 행당동 1-82,37.5613557,127.0407081,070-8987-0701,"숯불통삼, 숯불갈비목살, 생삼겹, 허브와인목살","10,900~13,400원|2021.7",,xxMzQKRebhE
미미사양꼬치,미사본점,경기도 하남시 망월동 1093 (경서타워 2층),37.5661297,127.1908418,070-7543-7266,"양꼬치, 삼겹살, 양념양꼬치, 카레목살, 닭날개, 양념양삼겹, 마라양삼겹, 소갈비, 새우, 마파두부, 물만두, 꿔바로우","24,800원|2024.02",,gAKUevIQ4EM
미성참치,,경기도 의정부시 의정부동 508-2,37.7372727,127.041274,031-876-1999,[오후 4시부터] 참치,"40,000~100,000원|2023.11",,O8fhOJi5Kdw
미스터피자,명일점,서울시 강동구 명일동 324-2 (2층),37.5504333,127.144125,02-481-0012,"피자, 샐러드바, 음료","12,900원|2024.04",,68sjlq6EJwM
미스터피자,야탑점,경기도 성남시 분당구 야탑동 353-5,37.4117866,127.1276348,031-703-7676,"피자, 샐러드바, 음료","평일 12,900 주말 13,900원|2022.5",,3W4A4MmuYjE
바르미,롯데 평촌점,경기도 안양시 동안구 시민대로 180 (롯데백화점 7층),37.3898837,126.9503832,031-8086-9811,샤브샤브 메인메뉴 + 풀사이즈 샐러드바,"15,800~21,800원|2022.4",,zew58j3AR4I
바이킹스워프,잠실점,서울시 송파구 올림픽로 300 (롯데월드몰 캐주얼동 4층),37.5136378,127.1043005,02-1644-3210,"캐나다와 미국으로부터 직접 공수한 랍스터를 무제한으로, 수십가지 제철 자연산 해산물",$110 달러|2023.5,,4qR9Ad0ZpUE
백부원양꼬치,,경기도 부천시 심곡동 192-2 (2층),37.4879066,126.7825917,032-654-6688,양꼬치,"17,000원|2022.9",,u0JZ9PK6jcc
뱃놈과백정,구리본점,경기도 구리시 수택동 423-3,37.5993508,127.1420944,031-553-5684,"조개구이, 소고기, 돼지고기, 숯불닭갈비","15,900~29,900원|2022.7",,sQAHtAMqRHU
베지그린,,서울시 강남구 개포4동 1234-8 (광민빌딩 1층),37.477,127.0473427,02-577-6316,"자연건강 채식, 비건","12,000원|2023.3",,eOwhdca7VRo
별자리마라탕&훠궈,홍대점,서울시 마포구 서교동 346-36 (지하1층),37.5550216,126.9237159,02-322-0589,"[월휴무, 2인이상] 훠궈 (양고기, 소고기, 돼지고기, 해산물, 야채)","19,800원|2024.05",,1IlOZrakhuE
복만루,3호점,서울시 광진구 자양동 5-13,37.5395204,127.0692485,02-498-1685,"훠궈 (양고기, 소고기, 삼겹살, 해산물, 야채), 음료수",21900|2022.11,,GYPw_IkGMps
복성루샤부샤부성,,서울시 구로구 구로동 1124-6 (2층),37.4838053,126.9010378,02-838-0686,"훠궈 (양고기, 소고기, 우삼겹, 대패삼겹, 해산물, 야채)","[점심] 18,000 [저녁] 20,000원|2023.3",,K0P8vCUvJJ4
빕스 프리미어,제주점,제주도 제주시 연동 280-1 (DJ타워 9층),33.4933217,126.4922368,064-746-1997,"다양한 종류의 초밥과 사타이, 씨푸드 커리 등 씨푸드로 더욱 풍성해진 빕스에서 세계 유명 푸드마켓을 만나보세요","[평일점심] 37,900 [저녁및주말] 47,900원|2023.8",,vgPgs8p9nyc
사계진미 숯불닭갈비,강남1호점,서울시 서초구 서초동 1308 (2층),37.5014848,127.0242938,02-3477-4343,"닭갈비 3종, 치킨 2종, 닭곰탕, 공기밥, 음료수, 생맥주, 소주","17,500~24,500원|2023.8",,dlEk0ROT41s
사계진미숯불닭갈비,구로디지털점,서울시 구로구 구로동 1124-47 (3층),37.4844926,126.9006069,02-855-7302,"(평일점심 2,000원 할인) 숯불 닭갈비(소금,간장,고추장), 치킨, 닭곰탕, 공기밥, 음료수, 주류","18,500~26,500원|2024.12",,kUJocT6IdWE
사계진미숯불닭갈비,송파점,서울시 송파구 백제고분로7길 42-13,37.5102264,127.0839326,02-419-8996,"(1만원대) 숯불 닭갈비(소금구이,간장구이,고추장구이)",,,NZI8K82ejtc
사계진미숯불닭갈비,왕십리점,서울시 성동구 왕십리로 311-1 (2층),37.5616024,127.0345326,02-2291-7744,"숯불 닭갈비(소금구이,간장구이,고추장구이)","14,500~19,500원|2021.7",,dUsbr_G7xKY
사계진미숯불닭갈비,제주일도점,제주도 제주시 일도이동 68 (2층),33.5022062,126.5433578,064-751-4445,"숯불 닭갈비(소금,간장,고추장),공기밥,음료수,주류(생맥주, 소주)","17,500~24,500원|2023.7",,kZ7MNJN7_6o
사계진미숯불닭갈비,종각점,서울시 종로구 관철동 18-10 (3층),37.5696757,126.9846253,02-722-5757,"닭갈비, 치킨, 공기밥, 음료수, 주류","14,500~19,500원|2021.7",,nayu0zXkMYo
산더미고깃집,,서울시 종로구 인의동 36,37.5719395,126.9996178,02-744-7188,"(일요일 휴무) 돼지고기, 소고기","12,900~19,900원|2021.8",,4eMGtbJfcHY
생고기제작소,이수점,서울시 동작구 사당동 139-26 (1층),37.4873385,126.9804083,02-533-4337,(1~2만원대) 프라임 등급의 최상급 소고기 또는 돼지고기,,,It_4eEdPURw
샤브20,발산역점,서울시 강서구 마곡동 797-4,37.5591532,126.836521,02-2658-2005,"다양한 종류의 육수, 소고기, 돼지고기 샤브샤브, 음료수","[평일점심] 19,900~ [저녁및주말] 24,900원부터|2022.9",,nASwiTRIal8
샤브쌈주머니,서울강남점,서울시 강남구 테헤란로5길 11,37.4994943,127.0292629,02-501-7701,"삼겹살, 우삼겹, 샤브샤브","23,800~28,800원|2022.7",,hQylpDrvL9g
샤브쌈주머니,잠실직영점,서울시 송파구 올림픽로8길 6,37.5111413,127.0799134,02-421-1987,"(1~2만원대) 삼겹살, 우삼겹, 샤브샤브",,,2Pg-fQApVBE
샤브플란트,,인천시 남동구 논현동 747-1 (5층),37.3975365,126.7275276,0507-1396-5682,소고기샤브월남쌈,"[평일점심] 19,800 [저녁및주말] 22,800원|2023.11",,Sq-OR7G9K5s
서유기마라탕&훠궈,대학로점,서울시 종로구 명륜2가 184 (명륜빌딩 1층),37.5830462,126.9994383,02-741-8886,"훠궈 (소고기, 양고기, 해산물, 야채)","17,800원|2021.10",,gR2whGTtuwo
소먹으면돼지,수유점,서울시 강북구 수유동 221-23,37.6392723,127.0234447,02-999-9266,"최상급 냉장 숙성 소고기, 육회, 생삼겹살","18,500~33,900원|2024.09",,5m4dqTsCJyI
소성공자 샤브샤브,,서울시 강남구 강남대로152길 23,37.5176854,127.0212466,02-516-8883,(2만원대) 훠궈,,,1XKvtJSgOHU
소왔쏘,신촌점,서울시 서대문구 창천동 52-82 (1층 쏘왔소),37.558599,126.935187,02-335-6971,"돼지고기, 소고기","13,500~24,900원|2021.4",,5JLPGgEY438
스시메이진,서울-구로점,서울시 구로구 디지털로 300 (구로동 지밸리비즈플라자 2층 6호),37.4843645,126.8965052,02-6344-3782,"열 두달, 365일 먹어도 행복한 초밥","(평점) 20,900 (평저) 24,900 (주말) 26,900원|2024.12",,gIQtE6C99IQ
스시메이진,서울-홍대점,서울시 마포구 양화로18길 3 (동교동 삼양세븐스프링스 2층),37.5570334,126.9245834,02-3144-7072,"열 두달, 365일 먹어도 행복한 초밥","(평점) 17,900 (평저) 22,900 (주말) 23,900원|2021.12",,YTPXKhpt_5k
스시오블랙컨테이너,울산점,울산시 남구 삼산로 277번길 10 (3층),35.5403135,129.3372634,052-257-7855,건강하고 맛있는 회전 초밥 뷔페,"[평일점심] 20,900 [저녁&주말] 22,900원|2023.8",,kqER4d0Mr1w
승진참치,,서울시 마포구 와우산로15길 33 (2층),37.549092,126.9216427,070-7576-2333,(2~10만원대) 참치,,,JxOOoSJm-T8
시흥조개구이 무한리필 클램씨,시흥점,"경기도 시흥시 은행동 646-11 (2층, ClamSea)",37.4367808,126.8039669,010-2140-5157,"조개구이, 소고기, 돼지고기, 새우, 훈제오리, 꼼장어","33,000원|2023.2",,gc9zhnMtJPk
신강양꼬치,수진점,경기도 성남시 수정구 수진동 2980-1,37.43969642,127.1301927,031-722-5749,"모듬꼬치 (양꼬치,소꼬치,삼겹살,새우 등)","17,500원|2022.5",,7h0zr6uvZhw
신라마라탕&훠궈무한리필,연신내점,서울시 은평구 갈현동 399-13 (2층),37.619281,126.9189816,02-356-8035,"(2인 이상) 회오리 훠궈 (양고기, 소고기, 해산물, 야채), 공기밥","19,800원|2022.10",,L8my_82kWF0
신마포갈매기,종각역점,서울시 종로구 관철동 43-6,37.56929562,126.9842841,02-722-6092,"마포갈매기, 매콤갈매기, 삼겹살, 주먹고기, 목살양념구이, 숯불불고기","16,900~19,900원|2021.7",,j8vuyDMs_U0
신서서갈비 2,,경기도 의정부시 의정부동 184-6,37.7424078,127.0501649,0507-1348-6692,서서양념구이+통삼겹살+매콤바베큐갈비+우삼겹+공기밥+음료수,"15,500|2023.11",,Uo2qrkbtttc
신셰프양꼬치&훠궈,남현동1호점,서울시 관악구 남현동 1062-10,37.47544,126.9804,02-598-0077,"[2인 이상] 양꼬치, 훠궈","27,900~36,900원|2024.07",,N7oLuH79XxI
신천무한리필,,서울시 송파구 잠실동 185-9,37.510254,127.0849715,02-417-7000,참숯으로 구워먹는 프리미엄급 소고기 (부위 선택불가),"28,900원|2024.02",,qxzFcGruWTc
신천일호집,신천점,서울시 송파구 백제고분로7길 28-13 (잠실동),37.5101746,127.0823357,02-418-9578,"(1~2만원대) 소고기, 돼지고기",,,vYm8uCI5V6Q
쎌빠,경주점,경상북도 경주시 노동동 74-4 (2층),35.84184889,129.2132467,054-745-9285,"Self와 Bar의 결합 쎌빠, 카페풍의 고기뷔페","17,000원|2023.7",,vIMNw2PSGaA
아띠참치초밥,,경기도 안양시 동안구 시민대로 171 (금강벤처텔 2층),37.39118742,126.9498125,031-440-8617,참치,"30,000~75,000원|2022.4",,3Vj_KhHkGF4
아름소 삼겹살,,서울시 용산구 한남동 683-134 (2층),37.53597055,126.99997,02-749-9491,"2인이상. 생상겹살, 목살, 소고기 등심, 차돌","14,900~24,900원|2021.11",,Gm0R9xsfZJ4
아향부,본점,서울시 영등포구 대림동 1051-84,37.4925402,126.8965862,02-842-2332,"[2인 이상] 훠궈(양고기, 소고기, 해산물, 야채), 양갈비, 양다리","19,000~25,000원|2023.11",,KYg9cFJ5NyE
아향부,부천점,경기도 부천시 심곡동 192-5 (1층),37.4875972,126.7826047,032-611-3062,"마라훠궈, 마라상궈, 마라향어찜, 양다리&양갈비 중 택 1","17,000~25,000원|2022.10",,yts_TSFKjJI
애슐리,강서 NC백화점 (W),서울시 강서구 강서로56길 17 (등촌3동 강서NC백화점 9층),37.5599337,126.8405133,02-2667-9804,셰프의 정성이 만든 트렌디한 소울푸드 뷔페의 품격을 더하다,"[평점] 17,900 [평저] 25,900 [주말] 27,900원|2022.9",,daW2OxljOPI
애슐리,건대 스타시티점 (W),"서울시 광진구 능동로 110 (화양동,영존빌딩 B동 4층)",37.5406442,127.0714383,02-3436-1033,(1~3만원대) 셰프의 정성이 만든 트렌디한 소울푸드 뷔페의 품격을 더하다,,,V7WB7NtzCZE
애슐리퀸즈,뉴코아 강남점,"서울시 서초구 잠원로 51 (잠원동, 뉴코아아울렛 1관 5층)",37.5092377,127.0074886,02-3477-1030,셰프의 정성이 만든 트렌디한 소울푸드 뷔페의 품격을 더하다,"[평점] 19,900 [평저] 25,900 [주말] 27,900원|2023.8",,GWAWO1msZ_Q
애슐리퀸즈,뉴코아 울산점,울산시 남구 달동 1360-3 (8층),35.5384656,129.3308798,0507-1339-4747,셰프의 정성이 만든 트렌디한 소울푸드 뷔페의 품격을 더하다,"[평점] 19,900 [평저] 25,900 [주말] 27,900원|2023.8",,9ckregDDvw4
애슐리퀸즈,여의도한강공원점,서울시 영등포구 여의도동 85-1 (2층),37.5257718,126.9384091,02-784-1031,셰프의 정성이 만든 트렌디한 소울푸드 뷔페의 품격을 더하다,"[평점] 19,900 [평저] 25,900 [주말] 29,900원|2023.9",,w5OnNTrvTmo
애슐리퀸즈,종각역점,서울시 종로구 종로 51 (종로2가 종로타워 지하1층),37.5705758,126.9836843,02-720-1031,셰프의 정성이 만든 트렌디한 소울푸드 뷔페의 품격을 더하다,"[평점] 19,800 [평저] 25,800 [주말] 27,800원|2023.8",,7IPhy8v7aZw
애슐리퀸즈,포항점,경상북도 포항시 북구 대흥동 593-12 (7층),36.0359477,129.3622311,0507-1438-1031,셰프의 정성이 만든 트렌디한 소울푸드 뷔페의 품격을 더하다,"[평점] 19,900 [평저] 25,900 [주말] 27,900원|2023.7",,aS30r7wR5is
양만땅,,경기도 부천시 부천로29번길 28 (2층),37.4873055,126.7819096,032-208-2211,"[1시부터] 호주청정 양고기(통양갈비, 제비추리, 어깨살, 양삼겹, 양생등심), 듀록눈꽃삼겹","23,900원|2024.10",,o8mF9Gt2kUw
양반갈비,성내점,서울시 강동구 성내동 111-55 (1층),37.532704,127.1223304,010-6611-9764,"[월 휴무] 우돼갈비, 눈꽃목살, 양념갈비, 닭목살, 닭갈비, 특선메뉴, 공기밥","[평일점심] 16,900 [저녁및주말] 19,900원|2024.04",,4j6i-tjg56g
양포문어식당,,경상북도 경주시 성동동 311 (성동시장),35.8459119,129.2158124,010-3011-0107,"(매주 월요일, 1&3주 일요일 휴무) 가정 한정식","8,000원|2023.8",,cM5JBIypDdg
어머나생고기,시흥대야점,경기도 시흥시 대야동 544-1 (2층),37.4425536,126.7924418,031-315-8818,"생삼겹살, 냉동삼겹, 된장찌개, 라면","16,900원|2023.5",,hMGStiq32aI
엉터리생고기,건대역점,서울시 자양동 8-24 (2층),37.5407848,127.0673884,02-466-3358,"(2인 이상) 삼겹살, 목살, 대패삼겹, 우삼겹, 공기밥","13,800~17,800원|2022.8",,-0m8FH-XRBg
엉터리생고기,금천 시흥점,서울시 금천구 시흥동 903 (2층),37.4511243,126.9023412,02-895-5004,"[2,4번째 화요일 휴무, 월~목 3시, 금~일 11시부터]  삼겹, 우삼겹, 된장찌게, 공기밥","15,000~17,000원|2024.8",,r-dBV5ghBkM
엉터리생고기,대학로점,서울시 종로구 명륜동 2가 34 (3층),37.583443,127.0003967,02-743-3374,"3cm 두께의 품질 좋은 삼겹살, 우삼겹, 목살, 공기밥, 된장찌개","12,000~13,000원|2021.10",,oCCYLCfFY_8
엉터리생고기,홍대점,서울시 마포구 서교동 345-2 (2층),37.555051,126.9234315,02-324-9588,"삼겹살, 목살, 된장찌게","15,800원|2024.03",,WjqLc0uQpEA
연어상회,신촌점,서울시 서대문구 창천동 46-12,37.5588919,126.9381493,010-5737-4964,"연어, 육회, 새우 등","20,900~23,900원|2021.5",,r9aTnP_iMo4
와규하우스,,경기도 성남시 분당구 장미로92번길 13-5,37.4125312,127.1314289,031-704-5355,"호주산 와규로스트, 미국산 부채살, 생방송오늘저녁 (2019.08.07) 방영","39,000원|2022.5",,MUVSfXlW2y0
왔쏘,홍대점,서울시 마포구 독막로 7길 20 (2층),37.5486942,126.9191787,02-336-7772,"흑우 한마리 꽃등심, 갈비살, 부채살, 토시살","28,900원|2024.7",,Yn9tz9INhjg
왕십리마라탕,홍대점,"서울시 마포구 서교동 346-39 (2층, 맘대로마라탕훠궈) ",37.5551411,126.9237327,010-9990-6658,"(1만원대) 훠궈(양고기, 소고기, 어묵, 해산물)",,,pPvKEa0swFk
왕십리마라탕훠궈,,서울시 성동구 도선동 203-6 (지하1층),37.563302,127.0336913,02-2298-8468,"(2인이상) 훠궈 (양고기, 소고기, 야채), 공기밥","15,000원|2021.7",,uO2ZClZTysw
왕십리장어,,서울시 성동구 하왕십리 966-14 (2층),37.5623864,127.0331984,02-2296-6404,"바다장어, 삼겹살, 훈제오리, 공기밥, 음료수, 소주, 맥주","32,900~42,900원|2021.7",,thNy-SA1jSo
왕십리조개창고,,서울시 성동구 하왕십리동 966-12 (지하1층),37.5626732,127.0328229,010-4596-0449,"조개구이, 조개찜, 소고기, 돼지고기, 새우, 막창, 꼬치류","34,900원|2024.8",,VZQ2RURmJ7U
우리동네소고기무한리필,부천역점,경기도 부천시 심곡동 382-3 (2층),37.4863144,126.7812503,032-661-9881,"소고기, 돼지고기, 음료수","16,500~27,000원|2022.9",,3HVBpKGLHmU
"우정양꼬치,무한리필",대학로점,서울시 종로구 동숭동 50-24,37.5817483,127.0043151,02-6081-0082,"양꼬치 (양, 소, 닭, 새우, 삼겹, 닭똥집, 오돌뼈, 소시지, 버섯)","16,800원|2022.8",,AsCNxBVASiw
월남쌈김상사,의정부(의정부점),경기도 의정부시 의정부동 497,37.7371192,127.043912,031-855-9249,"[2인 이상]웰빙 월남쌈전문, 소고기, 삼겹살 과 야채 샐러드바","[평일점심] 18,000 [저녁및주말] 21,000원|2023.11",,ioPeMJAVRLo
위푸우로훠궈,,경기도 성남시 분당구 수내동 7-1 (2층),37.3799576,127.1168258,031-717-6277,훠궈,"[평일점심] 21,000  [저녁및주말] 23,000원|2022.6",,AItd6cMfz5Q
유미맛집뷔페,,서울시 종로구 효제동 267,37.5727734,127.0037281,02-747-6881,"(만원이하) (점심) 가정 한정식, 매일마다 바뀌는 맛있는 요리!!",,,tG6QNllzPvo
육미제당,관악봉천점,서울시 관악구 봉천동 910-1 (1층),37.4846787,126.9464107,02-883-1998,"최상급 대장갈비, 삼겹살, 양념구이, 숯불닭갈비, 모듬튀김, 공기밥, 음료수","19,900원|2024.02",,1ymWDLa547c
육미제당,하남미사점,경기도 하남시 망월동 1099 (1층),37.5637322,127.1904221,031-699-5644,"최상급 대장갈비, 삼겹살, 양념구이, 숯불닭갈비, 모듬튀김, 공기밥, 음료수","19,900원|2024.02",,OU9aW-b4008
육장장이,구로디지털점,서울시 구로구 구로동 1124-55 (2층),37.4842484,126.9001201,02-864-9998,"프라임급 흑소, 삼겹살, 목살, 갈매기살, 고추장 닭갈비","18,900~28,900원|2023.3",,FX6n9skz77U
육플러스,,서울시 서초구 방배동 451-12,37.4781784,126.9836049,02-582-9282,"(1~2만원대) 삼겹살, 소고기",,,RK-eyJP5VnU
육회바른연어,길동점,서울시 강동구 길동 392-1 (1층),37.5384267,127.1412847,02-472-1004,육회,"19,900원|2024.03",,VPIbWQXb6sQ
육회바른연어,산본점,경기도 군포시 산본동 1137-1 (1층),37.35981,126.9307412,031-396-1541,"(2인 이상) 육회, 연어","19,900~27,900원|2023.3",,9PbOvodwmQg
육회바른연어,안양본점,경기도 안양시 만안구 안양동 622-200 (1층),37.3977219,126.9233264,0503-7508-4679,"(2인 이상) 육회, 연어","17,900~23,900원|2022.6",,jrw7r4lb6Lc
육회왕자연어공주,마곡발산점,서울시 강서구 마곡동 723-2 (지하1층),37.5589464,126.8378241,070-4300-1501,"육회, 연어","18,900~23,900원|2022.8",,CDfY-yxuOpE
육회왕자연어공주,분당서현점,경기도 성남시 분당구 서현동 247-3 (지하1층),37.385879,127.1250507,070-4647-4242,"육회, 연어","18,900~21,900원|2022.6",,LvWSFwAvBKI
육회왕자연어공주,성남모란점,경기도 성남시 중원구 성남동 3426 (2층),37.432703,127.1315703,031-757-0010,"육회, 연어","18,900~21,900원|2022.5",,AOZnwp4KSJ4
육회한연어,건대점,서울시 광진구 동일로22길 42,37.541927,127.0664616,02-497-9211,"육회, 연어, 참치","21,900~26,900원|2022.12",,qByZXlpl1UY
육회한연어,대학로점,서울시 종로구 창경궁로 246-6,37.5832022,126.999528,070-8243-0245,"슈페리어 등급 생연어, 최고급 곡물육회","22,900~26,900원|2024.04",,NCJwX6_R-h4
이가(李家),서울대점,서울시 관악구 봉천동 851-15 (이가집),37.4820262,126.9540901,010-3330-1084,"(2인이상) 새우구이, 새우튀김, 편백찜, 생생정보 (2017.05.12) 방영","23,900~19,900원|2021.8",,5Z5rstSCKh4
이공족발,본점,서울시 송파구 백제고분로9길 26,37.5095637,127.0820085,02-415-5849,"(1만원대) 족발,불족,보쌈,떡볶이, 생방송투데이 (2016.05.23) 방영",,,2ro8MWqIvQs
이빠네마그릴,홍대점,서울시 마포구 홍익로 7 (지하1층),37.5532461,126.9235073,02-323-4440,브라질식 스테이크 슈하스크,"[평일점심] 35,900 [저녁및주말] 41,900원|2024.01",,ShDl_FjJznc
이춘복참치,발산역점,서울시 강서구 등촌동 673-5 (1층),37.5589914,126.8397108,02-3662-4558,(저녁) 참치,"30,000~100,000원|2022.7",,7gAfObtUv18
이흥선참치,미아직영점,서울시 강북구 도봉로10길 40,37.6144449,127.0310177,02-988-1879,[오후 4시부터] 참치,"35,000~100,000원|2023.11",,tFcb8t6jnWw
자색휴일,,서울시 마포구 합정동 413-18,37.5488736,126.9159698,02-6013-9851,"생맥주, 하이볼 노미호다이","18,900원|2021.5",,dQkhGmAgjT0
장터참숯무한리필,발산점,서울시 강서구 등촌동 674-9,37.5591919,126.8400362,02-3664-6166,"삼겹살,왕갈비,스테이크갈비,우삼겹,껍데기","15,900원|2022.8",,HPAntUHmMqo
전주밥차,종각점,서울시 종로구 중학동 14 (트윈트리타워 A동 지하1층),37.5756452,126.9799777,02-6016-6909,20여년간 영화 및 드라마 현장에서 식사를 책임져 온 그 맛 그대로,"9,000원|2023.7",,fKxf66-dHbo
조개창고,노원점,서울시 노원구 상계동 591-2 (2층),37.6580068,127.0624341,010-3942-3533,"(2인이상) 30여가지 (조개, 고기, 사이드메뉴) 육해공 무제한, 생방송투데이 (2017.08.21) 방영","26,900원|2023.10",,Wc8Hk40bK-c
조개창고,신천점,서울시 송파구 잠실동 191-1 (3층),37.51030722,127.0813362,02-553-3968,"[평일 오후 4:30, 주말 3:30부터, 2인이상] 30여가지 (조개, 고기, 사이드메뉴) 육해공 무제한","32,500원|2024.01",,YeLYIeefjdc
조개천하,신정점,서울시 양천구 신정동 905-2 (해풍빌딩),37.5266336,126.859339,02-2065-2067,"[2시 부터] 육해공 (조개구이, 새우, 양념고기, 삼겹살, 윙봉)","34,000원|2024.03",,ZXhA6YzpAy4
조개폭식,연신내점,서울시 은평구 대조동 199-9,37.6169659,126.9195279,02-351-4398,"2인이상. 조개구이, 우삼겹, 칼국수","29,500원|2022.10",,X8xa7byJyVI
중경해선 훠궈,,서울시 강동구 성내동 48-12,37.5368772,127.1262044,02-471-8989,"훠궈 (양고기, 돈목살, 소목심, 우삼겹, 해산물, 야채)","[평일점심] 22,800 [저녁및주말] 24,800 [혼밥] 26,000원|2024.04",,J9UMNWBEiI0
진심참치,,서울시 강북구 수유동 174-22 (1층),37.6409648,127.0277764,02-992-2410,참치. 최상의 재료와 정성,"48,000원|2023.10",,R5HnzzTGlGQ
쩐호우 양꼬치&샤브샤브,,서울시 관악구 신림동 1433-74 (2층),37.4847462,126.927546,02-888-7779,"(2인 이상) 꼬치모듬, 통양갈비","19,000~53,500원",,HMnZC7jFYO8
참치공방,장안동지점,서울시 동대문구 장안동 372-4 (1층),37.5705557,127.0703469,02-2212-7700,참치,"33,000~60,000원|2022.7",,XeqhaQEmgJ8
참치야,안양점,경기도 안양시 동안구 관양동 1601-1 (삼일프라자 2층),37.3940765,126.9625726,031-384-3737,참치회 ,"28,000~84,000원|2022.4",,PYnLobCDDUU
천향원,,서울시 중구 소공동 81 (소공빌딩 2층),37.5638288,126.9800428,02-318-7705,"훠궈 (소고기,양고기,돼지고기, 야채)","[평점] 19,800 [평저] 25,800 [주말] 27,800원|2023.8",,YobGfokumKc
철판구이300도씨,,서울시 송파구 잠실동 189-4,37.5099601,127.0823549,02-423-5352,"(1만원대) 닭다리구이, 삼겹살, 목살스테이크, 김치찌개, 야채볶음, 생생정보 (2015.11.09) 방영",,,Admy_Jd4KV0
청년고기장수,독산점,서울시 금천구 독산동 1054-28 (1층),37.4635403,126.8977925,0507-1465-8703,"숙성눈꽃삼겹, 마라삼겹, 등갈비(청마호크), 목살, 돼지갈비, 청년닭갈비, 껍데기, 떡볶이, 튀김, 공기밥, 음료수","19,900원|2024.8",,B2dhAdARmIo
청년고기장수,상봉점,서울시 중랑구 상봉동 100-34 (2층),37.5962409,127.0840763,02-2207-8090,"숙성눈꽃삼겹살, 스테이크목살, 양념 청마호크, 양념목살, 화끈삼겹살, 닭갈비, 공기밥, 샐러드바, 음료수","18,500원|2023.9",,fjsaSq_JU94
청담마켓,본점,서울시 강남구 논현동 101-13 (우림빌딩),37.5214769,127.0392772,02-515-3314,"(3만원대) (저녁) (조개구이 또는 조개찜), 돼지고기, 소고기, 해산물",,,4X1Iz1uzQjA
청담집,,서울시 강남구 청담동 1-1 (1층),37.5229386,127.0398472,02-3445-0501,"소고기, 음료수","19,800~23,800원|2021.5",,DKe3TmRnKqE
청솔밭뷔페,,경상북도 포항시 남구 대도동 169-3,36.0101938,129.3619751,054-283-0077,(가격문의) 청솔밭웨딩 뷔페,,,3YqLdB9NPiM
초원샤브샤브&훠궈,심곡점,경기도 부천시 심곡동 190-11,37.487469,126.7828377,032-655-0535,"(2인 이상) 훠궈 (양고기, 우삼겹, 소목심, 돼지고기, 해산물, 야채)","18,000원|2022.9",,FoTbOZde2Go
초원샤브샤브뷔페,부천본점,경기도 부천시 심곡동 164-9,37.4871472,126.7840028,032-663-5678,"(2인 이상) 훠궈 (양고기, 우삼겹, 소목심, 돼지고기, 해산물, 야채)","18,000원|2022.6",,oKU0ILocK7o
초통삼,신림점,서울시 관악구 신림동 1639-1,37.4836743,126.9270897,02-888-1520,"(2인 이상) 초벌 통삼겹, 돼지갈비(전지), 껍대기, 치킨스테이크","12,900원|2022.9",,Yv_1MgVFoJI
최고갈비,신정네거리점,서울시 양천구 신정동 1031-7 (2층),37.520096,126.8532094,02-6010-9279,돼지갈비+삼겹살+소주+생맥주,"18,000~25,000원|2024.01",,SLkX5A896Bc
최진사댁 무한숯불갈비,상봉점,서울시 중랑구 상봉동 91-1,37.5969645,127.0885289,02-6466-9777,"숯불돼지갈비, 생목살, 매콤목살, 매콤닭갈비, 돼지껍데기, 공기밥, 스프, 음료수","15,500원|2023.1",,H4XlybrhvbY
추억집 ,산본점,경기도 군포시 산본동 1123-4 (유공프라자 1층),37.3600098,126.9297765,031-395-3392,"(화요일 휴무, 오후 4시~) 냉동삼겹살, 공기밥","14,900원|2023.4",,yXhpYCvNYZE
충칭마라훠궈,2호점,서울시 관악구 봉천동 1611-3,37.4796146,126.9551296,02-889-1188,"마라훠궈 (양고기, 소고기, 돼지고기, 해산물, 야채)","16,000원|2021.8",,5yW51hPEF70
칼먹은삼겹살,안양1번가점,경기도 안양시 만안구 안양동 674-49 (2층),37.3998422,126.9213187,031-466-9909,"삼겹살, 목살, 갈매기살, 우삼겹, 된장찌개","14,000~15,000원|2023.7",,P9Wb-jcd_Pk
코파카바나 그릴,,서울시 용산구 이태원동 56-21,37.5339652,126.989725,02-796-1660,"(월휴무) 브라질식 바비큐 슈하스코, 샐러드바, 생생정보 (873회) 방영","(평일점심) 29,000 (저녁및주말) 35,000원|2021.11",,gYhEkIi1dFY
쿠우쿠우,골드 강동점,"서울시 강동구 천호동 42 (홈플러스 지하1층,천호동)",37.5457146,127.1422553,02-484-6274,매일 아침 공급되는 신선한 재료로 만든 스시 롤 샐러드 뷔페,"[평점] 24,900 [평저] 29,900 [주말] 33,900원|2024.04",,0S7DQQ74Dpg
쿠우쿠우,명동점,서울시 중구 명동 1가 7-1번지 (4층),37.5642401,126.9853546,02-753-1230,(1~2만원대) 매일 아침 공급되는 신선한 재료로 만든 스시 롤 샐러드 뷔페,,,Ii2AvghAxg8
쿠우쿠우,미사점,경기도 하남시 망월동 1093 (경서타워 11층),37.5662089,127.1910652,031-795-1998,매일 아침 공급되는 신선한 재료로 만든 스시 롤 샐러드 뷔페,"[평점] 20,900 [평저] 25,900 [주말] 27,900원|2024.02",,HvSFygJqiOE
쿠우쿠우,보라매공원점,서울시 동작구 보라매로5가길 16 (보라매아카데미타워 7층),37.4913263,126.924075,02-835-6274,매일 아침 공급되는 신선한 재료로 만든 스시 롤 샐러드 뷔페,"(평점) 23,900 (평저) 28,900 (주말) 31,900원|2023.1",,AyOEkkx1lbA
쿠우쿠우,상봉점,"서울시 중랑구 상봉2동 101 (이지펠리스, 3층)",37.5964876,127.0875413,02-433-6274,매일 아침 공급되는 신선한 재료로 만든 스시 롤 샐러드 뷔페,"[평점] 23,900 [평저] 28,900 [주말] 31,900원|2023.1",,1XIYp6ijaBw
쿠우쿠우,성남본점,"경기도 성남시 수정구 수정로 138 (쿠우쿠우빌딩 6,7층)",37.4417713,127.1354642,031-759-9000,매일 아침 공급되는 신선한 재료로 만든 스시 롤 샐러드 뷔페,"(평점) 18,900 (평저) 23,900 (주말) 25,900원|2022.5",,39-vz-XLQ8M
쿠우쿠우,연신내점,서울시 은평구 통일로856 (메트로타워 6층),37.6197065,126.9216803,02-388-3690,매일 아침 공급되는 신선한 재료로 만든 스시 롤 샐러드 뷔페,"(평점) 19,900 (평저) 24,900 (주말) 26,900원|2022.12",,T64tiDep1No
쿠우쿠우,울산동구점,울산시 동구 일산동 949-4 (3층),35.4979357,129.4297126,052-252-6274,매일 아침 공급되는 신선한 재료로 만든 스시 롤 샐러드 뷔페,"[평점] 20,900 [평저] 22,900 [주말] 24,900원|2023.8",,vYgHQP-XG-I
쿠우쿠우,은계점,경기도 시흥시 은행동 646-10 (6층),37.437124,126.8039223,031-317-6274,매일 아침 공급되는 신선한 재료로 만든 스시 롤 샐러드 뷔페,"[평점] 22,900 [평저] 27,900 [주말] 29,900원|2023.3",,67Sfz3Mqtt0
쿠우쿠우,의정부점,경기도 의정부시 의정부 1동 184-6 (3층),37.7424305,127.0502551,031-846-6274,[화요일 휴무] 매일 아침 공급되는 신선한 재료로 만든 스시 롤 샐러드 뷔페,"[평점] 20,900 [평저] 25,900 [주말] 27,900원|2023.08",,PnnD5eRh0o8
쿠우쿠우,일산호수공원점,경기도 고양시 일산동구 장항동 869 (SK엠시티 3층),37.6548021,126.7708556,031-932-9752,매일 아침 공급되는 신선한 재료로 만든 스시 롤 샐러드 뷔페,"[평점] 24,900 [평저] 29,900 [주말] 32,900원|2023.12",,WF7VQn-6iBQ
쿠우쿠우,포항상원점,경상북도 포항시 북구 중앙로 273 (9층),36.0374302,129.3650502,054-242-6274,매일 아침 공급되는 신선한 재료로 만든 스시 롤 샐러드 뷔페,"[평점] 19,900 [평저] 23,900 [주말] 24,900원|2023.7",,ElZJq8_ceck
큰두레무한리필,,서울시 강북구 도봉로 284,37.6337107,127.0237086,02-983-9992,"돼지양념갈비, 삼겹살, 목살, 닭갈비, 우삼겹","16,900원|2023.09",,aXCoUo1oOg8
키누카누(키카),,서울시 강서구 마곡동 797-1 (B1 KIKA),37.559273,126.8346956,02-6421-9876,200여가지 다양한 즐거움.  스시 전문 브랜드,"[평점] 19,900 [평저] 25,900 [주말] 26,900원|2022.10",,qBtjzq8V94I
키친폿,,경기도 안양시 동안구 호계동 1050 (3층),37.3899192,126.9533393,031-385-7797,"[월요일 휴무] 소고기 샤브샤브 뷔페, 소주, 맥주","[평점] 24,900 [평저] 28,900 [주말] 29,900원|2024.08",,WuFjITdUzPM
킬맨참치,직영2호점,서울시 중랑구 상봉동 107-42,37.5946717,127.0862892,02-435-2645,(2인 이상) (주류 주문 필수) 참치 ,"17,000~28,000원|2022.7",,MhmYtcR8uYA
타지팰리스(Taj Palace),이태원점,서울시 용산구 이태원동 132-2 (2층),37.5336983,126.9954183,02-790-5786,(주말) 할랄(Halal) 인도 요리,"22,900원|2023.2",,YIv-pCK4m_0
태능참숯화로구이,성남모란점,경기도 성남시 중원구 성남동 2317,37.4343463,127.1377809,031-757-1278,"(2인 이상) 돼지갈비, 갈매기살","[월~목점심] 13,900 [저녁및주말] 15,900원|2022.5",,zWSZfXWg1nY
통큰갈비,대학로점,서울시 종로구 창경궁로 258-12 (1층),37.5837156,127.0003714,02-764-3374,4년의 시행착오 끝에 탄생한 비법양념으로 72시간 숙성한 15mm의 두툼한 숯불 스테이크갈비,"13,000원|2022.8",,Ywk6vVSAJBw
통큰갈비,홍대점,서울시 마포구 어울마당로 151-1,37.55680649,126.9267071,02-337-5553,숯불 스테이크갈비 + 삼겹살 + 닭갈비 + 족구이,"16,000~17,000원|2024.05",,TBHFaSA-0Jg
트웰라잇존,,서울시 용산구 이태원동 127-24 (TwilightZone),37.5341472,126.9954358,02-794-3076,(저녁) 칵테일,"남자 22,000원; 여자 17,000원|2021.11",,Zh0Q-soePtk
편백가원,의정부점,경기도 의정부시 의정부동 202-13 (1층),37.7423908,127.0479831,0507-1423-2747,[화요일 휴무] 편백찜(1회) + 소고기 샤브샤브,"[평일점심] 19,900 [저녁및주말] 21,900원|2023.12",,UIq7Q1nkqjY
편백회관,일산화정점,경기도 고양시 덕양구 화정동 978-1 (3층),37.6328492,126.8326403,0507-1418-9315,"편백찜, 소고기 샤브샤브, 공기밥","[평일점심] 16,900 [저녁및주말] 19,900원|2024.07",,aSVjUqAzmjM
편안집,금천시흥점,서울시 금천구 시흥동 987-12 (1층),37.4488062,126.9024135,0507-1387-7262,편백찜(1회)+샤브샤브+월남쌈,"[평일점심] 16,900 [저녁및주말] 18,900원|2024.8",,Ce5ZqfrGbhg
편편집,길동점,서울시 강동구 길동 385-10 (2층),37.5378063,127.1368948,0507-1494-0615,"(마라 1,000원 추가) 소고기 샤브샤브, 월남쌈, 공기밥","[평일점심] 16,900 [저녁및주말] 18,900원|2024.03",,p2G8OkLxleA
푸릴리,이천점,경기도 이천시 중리동 468-17,37.2751776,127.4498794,031-635-0222,돈까스 & 샐러드바 뷔페Style 레스토랑,"9,000원|2021.10",,LajSkBcuz-E
피자몰,뉴코아강남점,서울시 서초구 잠원동 70-2 (1관 지하1층),37.509239,127.007459,070-4779-2738,"Since 1994, 23년 전통 세계 각국의 피자와 샐러드, 디저트","[평점] 12,900 [평저] 15,900 [주말] 17,900원|2023.8",,tF2fbYfDb_Y
피자몰,울산점,울산시 중구 성남동 256-24 (리버플레이스 본관 3층),35.5531516,129.3203693,070-4757-4131,"Since 1994, 23년 전통 세계 각국의 피자와 샐러드, 디저트","[평점] 12,900 [평저] 15,900 [주말] 17,900원|2023.8",,mahIubMAkw8
한쌈,안양1번가점,경기도 안양시 만안구 안양동 674-117 (2층),37.3993875,126.921546,031-469-3592,"목살, 항정, 가브리, 양념갈비, 갈매기, 대패, 오리고기, 찜닭, 순대, 공기밥, 음료수","15,900원|2022.2",,Xf5DycK7cnA
한패,산본점,경기도 군포시 산본동 1140-2,37.3586848,126.9313637,031-396-8820,"삼겹살, 목살, 생오리, 항정살, 훈제, 우삼겹","15,500~18,900원|2023.5",,1N0JcezuuRI
호오탕훠궈,분당미금점,경기도 성남시 분당구 구미동 30 (웰파크 2층),37.3489303,127.110419,031-711-6660,"훠궈 (소고기, 양고기, 돼지고기, 해산물, 야채)","19,900원|2022.7",,NAnYNa_1Xwc
호오탕훠궈,성남위례점,경기도 성남시 수정구 창곡동 509 (위례중앙역중앙타워 B1),37.4734728,127.1427374,031-756-8630,"훠궈 (3가지 육수 , 소고기, 양고기, 돼지고기, 각종 해산물과 야채), 꿔바로우","19,900원|2023.6",,keCjQzAtnNw
호타루,,서울시 관악구 청룡동 1569-4 (지하 1층),37.4788467,126.9520296,010-8729-2932,"연어, 보쌈 (음료1잔 포함)","23,900~35,800원|2021.8",,ekrj6zpv1N0
화로상회,갈현점,서울시 은평구 갈현동 430-12,37.62000402,126.916868,02-356-6292,"(월휴무) 최상급 육질의 맛좋은 돼지고기(옛날생갈비, 삼겹살, 원조막창, 돼지껍데기), 공깃밥 & 셀프바","16,900원|2022.9",,zy-xxVqdFZY
화로상회,강남논현점,서울시 강남구 논현동 144-3,37.5094368,127.0232248,02-540-8592,"숯불닭갈비, 옛날양념갈비, 참숯통삼겹, 원조막창, 돼지껍데기, 공기밥","16,900원|2022.12",,8ABRW6aIA6Y
화로상회,구리수택점,경기도 구리시 수택동 524-4,37.5991656,127.1427252,031-564-0082,"최상급 육질의 맛좋은 돼지고기(옛날생갈비, 삼겹살, 원조막창, 돼지껍데기), 공기밥 & 셀프바","16,900원|2022.7",,eWC8tSdCh_4
화로상회,신촌점,서울시 서대문구 창천동 5-23,37.5588588,126.9396851,02-363-2292,"숯불닭갈비, 옛날양념갈비, 참숯통삼겹, 원조막창, 돼지껍데기, 공기밥","16,900원|2023.1",,owtUez5QzCY
화로상회,운서역점,인천시 중구 운서동 2801-1 (2층),37.4944724,126.4908246,032-751-2292,"최상급 육질의 맛좋은 돼지고기(옛날생갈비, 삼겹살, 원조막창, 돼지껍데기), 공깃밥 & 셀프바","17,500원|2023.7",,ol285m0sWxA
화로상회,천호점,서울시 강동구 천호동 453-8 (2층),37.5385014,127.1275006,02-477-6274,"최상급 육질의 맛좋은 돼지고기(옛날생갈비, 삼겹살, 원조막창, 돼지껍데기), 공깃밥 & 셀프바","17,500원|2024.03",,jI5Hm-sjEdA
화로상회,포항이동점,경상북도 포항시 남구 이동 662-5,36.0261723,129.3393225,054-275-5770,"최상급 육질의 맛좋은 돼지고기(옛날생갈비, 삼겹살, 원조막창, 돼지껍데기), 공깃밥 & 셀프바",17500|2023.8,,p6vdzbij1AY
화로상회,화정역점,경기도 고양시 덕양구 화정동 986 (동민프라자빌딩 2층),37.6316912,126.8330312,031-978-6797,"[월~금 4시, 주말 12시] 최상급 육질의 맛좋은 돼지고기(옛날생갈비, 삼겹살, 원조막창, 돼지껍데기), 공깃밥 & 셀프바","19,500원|2024.08",,8v3-i0Jh9QI
회식의달인,미사강변점,경기도 하남시 망월동 1079-2 (2층),37.5664362,127.1897332,031-793-7300,"[2인 이상] 소고기, 돼지고기 등 20여가지, 독일맥주","29,900~39,900원|2024.01",,wcewmXapfMc
회식의달인,신논현점,서울시 강남구 논현동 144-8 (2층),37.5090246,127.0234745,02-518-2622,"(2만원대) 소고기,돼지고기,갈비,소막창등 20여가지 고기, 공기밥",,,V1f7wM7Y7Cw
횡성집,,경기도 구리시 수택동 381-19,37.5989025,127.1391346,031-566-0906,"(오후 3시부터) 삼겹살, 목살, 가브리살, 항정살, 껍데기","14,500원|2022.7",,UDIZoYQTbJY
훠궈나라,강남점,서울시 강남구 역삼동 813-8 (2층),37.5024034,127.0265397,02-554-7701,"(혼밥 2,000원 추가) 훠궈(양고기, 우삼겹, 우전각, 삼겹살,야채)","[평일점심] 13,800 [저녁및주말] 17,800원|2023.10",,UmxK2_ORV4c
훠궈나라,홍대직영점,서울시 마포구 어울마당로 133,37.5562566,126.9246488,02-322-1592,"(1만원대) 훠궈 (백탕,홍탕,토마토탕,버섯탕)",,,u-5NsAQ-bbE
휘닉스 제주 코지 뷔페,,제주도 서귀포시 성산읍 고성리 127-2 (벨라테라스 오렌지동 1F),33.4309534,126.9282879,0507-1391-7732,[저녁] 오직 제주에서만 만나볼 수 있는 아주 특별한 한 끼,"110,000원|2023.10",,6raGxEJV-QQ
히츠지야,마곡발산점,서울시 강서구 마곡동 772-8 (에이스프라자 1층),37.5606178,126.8331596,02-2039-3221,"훗카이도식 저온 숙성 양갈비, 노미호다이(알콜, 논알콜)","38,000~56,000원|2022.8",,o1syFQICJtw
히츠지야,하남미사점,경기도 하남시 망월동 1099 (1층),37.5636508,127.1901448,0507-1319-9307,"[평일 5시, 주말 12시부터] 양갈비, 생맥주 칵테일, 하이볼","42,000~65,000원|2024.02",,IK8BL11OqeA
히츠지야,합정점,서울시 마포구 서교동 395-36,37.5493339,126.9168275,02-332-6217,"프리미엄 램 생등심, 양념 생갈비, 텐더로인, 치즈 함박스테이크, 생방송투데이 (2017.12.01) 방영","35,000~52,000원|2021.5",,87lxrO_pwOU
